{
    "links": {
        "self": "http://www.neowsapp.com/rest/v1/neo/54053783?api_key=iIulBulltgU6a56xZRHN4H3l9WmuAYTsLGpBGhQ2"
    },
    "id": "54053783",
    "neo_reference_id": "54053783",
    "name": "(2020 RR1)",
    "designation": "2020 RR1",
    "nasa_jpl_url": "http://ssd.jpl.nasa.gov/sbdb.cgi?sstr=54053783",
    "absolute_magnitude_h": 24.31,
    "estimated_diameter": {
        "kilometers": {
            "estimated_diameter_min": 0.0365220357,
            "estimated_diameter_max": 0.0816657545
        },
        "meters": {
            "estimated_diameter_min": 36.5220356958,
            "estimated_diameter_max": 81.6657544926
        },
        "miles": {
            "estimated_diameter_min": 0.0226937338,
            "estimated_diameter_max": 0.0507447315
        },
        "feet": {
            "estimated_diameter_min": 119.8229555923,
            "estimated_diameter_max": 267.9322739694
        }
    },
    "is_potentially_hazardous_asteroid": false,
    "close_approach_data": [
        {
            "close_approach_date": "2017-11-11",
            "close_approach_date_full": "2017-Nov-11 07:14",
            "epoch_date_close_approach": 1510384440000,
            "relative_velocity": {
                "kilometers_per_second": "41.3233722401",
                "kilometers_per_hour": "148764.1400645105",
                "miles_per_hour": "92436.2513639732"
            },
            "miss_distance": {
                "astronomical": "0.4827266332",
                "lunar": "187.7806603148",
                "kilometers": "72214876.118991284",
                "miles": "44872243.2667723592"
            },
            "orbiting_body": "Earth"
        },
        {
            "close_approach_date": "2019-04-28",
            "close_approach_date_full": "2019-Apr-28 12:21",
            "epoch_date_close_approach": 1556454060000,
            "relative_velocity": {
                "kilometers_per_second": "35.389763532",
                "kilometers_per_hour": "127403.148715263",
                "miles_per_hour": "79163.3620447699"
            },
            "miss_distance": {
                "astronomical": "0.1186371155",
                "lunar": "46.1498379295",
                "kilometers": "17747859.781743985",
                "miles": "11028008.692817593"
            },
            "orbiting_body": "Venus"
        },
        {
            "close_approach_date": "2020-08-31",
            "close_approach_date_full": "2020-Aug-31 05:42",
            "epoch_date_close_approach": 1598852520000,
            "relative_velocity": {
                "kilometers_per_second": "27.4000297336",
                "kilometers_per_hour": "98640.1070409629",
                "miles_per_hour": "61291.1265110916"
            },
            "miss_distance": {
                "astronomical": "0.0430681401",
                "lunar": "16.7535064989",
                "kilometers": "6442902.023821587",
                "miles": "4003433.6759164206"
            },
            "orbiting_body": "Earth"
        },
        {
            "close_approach_date": "2192-08-28",
            "close_approach_date_full": "2192-Aug-28 02:40",
            "epoch_date_close_approach": 7026403200000,
            "relative_velocity": {
                "kilometers_per_second": "18.6660748731",
                "kilometers_per_hour": "67197.8695430729",
                "miles_per_hour": "41754.1428835833"
            },
            "miss_distance": {
                "astronomical": "0.4415362944",
                "lunar": "171.7576185216",
                "kilometers": "66052889.169932928",
                "miles": "41043362.1242052864"
            },
            "orbiting_body": "Earth"
        }
    ],
    "orbital_data": {
        "orbit_id": "2",
        "orbit_determination_date": "2020-09-14 06:55:24",
        "first_observation_date": "2020-09-06",
        "last_observation_date": "2020-09-13",
        "data_arc_in_days": 7,
        "observations_used": 17,
        "orbit_uncertainty": "8",
        "minimum_orbit_intersection": ".0283265",
        "jupiter_tisserand_invariant": "4.938",
        "epoch_osculation": "2459101.5",
        "eccentricity": ".8018003162632464",
        "semi_major_axis": "1.186259403207571",
        "inclination": "14.8816456218044",
        "ascending_node_longitude": "165.1027697932875",
        "orbital_period": "471.9195063547678",
        "perihelion_distance": ".2351162385454906",
        "perihelion_argument": "37.26893431477301",
        "aphelion_distance": "2.137402567869652",
        "perihelion_time": "2459046.755365721573",
        "mean_anomaly": "41.76150397440465",
        "mean_motion": ".7628419574785879",
        "equinox": "J2000",
        "orbit_class": {
            "orbit_class_type": "APO",
            "orbit_class_description": "Near-Earth asteroid orbits which cross the Earth’s orbit similar to that of 1862 Apollo",
            "orbit_class_range": "a (semi-major axis) > 1.0 AU; q (perihelion) < 1.017 AU"
        }
    },
    "is_sentry_object": false
}